H1 CPF 01  gfz 2022 05 15 12  6352 terrasarx 
H2 0702601  6201 31698    2022 05 15 12 59 42 2022 05 20 00 00 42   120 1 1  0 0 0
H9
10 0 59718  15822.000000  0   -6028630.589  -2961264.513  -1540837.110
10 0 59718  15942.000000  0   -6234554.063  -2860837.223   -647955.586
10 0 59718  16062.000000  0   -6329346.733  -2707801.414    256324.727
10 0 59718  16182.000000  0   -6310412.473  -2506772.563   1156091.383
10 0 59718  16302.000000  0   -6177252.975  -2263244.092   2035498.484
10 0 59718  16422.000000  0   -5931491.156  -1983452.957   2879055.372
10 0 59718  16542.000000  0   -5576853.071  -1674231.109   3671906.753
10 0 59718  16662.000000  0   -5119106.985  -1342846.418   4400102.022
10 0 59718  16782.000000  0   -4565959.861   -996836.637   5050843.115
10 0 59718  16902.000000  0   -3926919.259   -643842.407   5612707.824
10 0 59718  17022.000000  0   -3213122.088   -291441.883   6075848.402
10 0 59718  17142.000000  0   -2437132.010     53010.041   6432160.024
10 0 59718  17262.000000  0   -1612711.204    382532.492   6675416.121
10 0 59718  17382.000000  0    -754572.364    690657.191   6801370.776
10 0 59718  17502.000000  0     121884.992    971553.853   6807827.762
10 0 59718  17622.000000  0    1000850.182   1220139.485   6694676.058
10 0 59718  17742.000000  0    1866385.536   1432170.547   6463891.752
10 0 59718  17862.000000  0    2702714.405   1604315.598   6119505.418
10 0 59718  17982.000000  0    3494509.100   1734207.689   5667536.888
10 0 59718  18102.000000  0    4227174.820   1820475.696   5115895.304
10 0 59718  18222.000000  0    4887121.961   1862754.525   4474247.011
10 0 59718  18342.000000  0    5462026.136   1861674.561   3753853.500
10 0 59718  18462.000000  0    5941068.920   1818828.437   2967374.788
10 0 59718  18582.000000  0    6315148.699   1736716.856   2128646.967
10 0 59718  18702.000000  0    6577063.873   1618674.377   1252437.085
10 0 59718  18822.000000  0    6721658.100   1468776.596    354176.456
10 0 59718  18942.000000  0    6745925.782   1291731.771   -550318.409
10 0 59718  19062.000000  0    6649074.296   1092758.909  -1445134.148
10 0 59718  19182.000000  0    6432540.630    877454.471  -2314548.141
10 0 59718  19302.000000  0    6099964.694    651652.461  -3143311.522
10 0 59718  19422.000000  0    5657118.192    421282.320  -3916921.070
10 0 59718  19542.000000  0    5111792.141    192227.222  -4621874.327
10 0 59718  19662.000000  0    4473645.994    -29813.819  -5245901.441
10 0 59718  19782.000000  0    3754025.263   -239455.956  -5778170.849
10 0 59718  19902.000000  0    2965751.466   -431748.424  -6209468.424
10 0 59718  20022.000000  0    2122886.871   -602282.359  -6532346.508
10 0 59718  20142.000000  0    1240481.673   -747284.042  -6741240.136
10 0 59718  20262.000000  0     334307.562   -863692.981  -6832554.171
10 0 59718  20382.000000  0    -579420.468   -949222.202  -6804718.072
10 0 59718  20502.000000  0   -1484327.090  -1002401.173  -6658209.564
10 0 59718  20622.000000  0   -2364163.719  -1022600.503  -6395547.789
10 0 59718  20742.000000  0   -3203093.755  -1010037.985  -6021253.305
10 0 59718  20862.000000  0   -3985971.791   -965766.391  -5541779.385
10 0 59718  20982.000000  0   -4698617.356   -891642.857  -4965412.529
10 0 59718  21102.000000  0   -5328074.972   -790279.961  -4302140.269
10 0 59718  21222.000000  0   -5862856.464   -664979.941  -3563489.334
10 0 59718  21342.000000  0   -6293161.614   -519652.217  -2762334.117
10 0 59718  21462.000000  0   -6611069.965   -358715.718  -1912677.369
10 0 59718  21582.000000  0   -6810700.028   -186989.152  -1029407.631
10 0 59718  21702.000000  0   -6888331.372     -9569.682   -128034.739
10 0 59718  21822.000000  0   -6842481.233    168295.904    775589.291
10 0 59718  21942.000000  0   -6673938.472    341343.920   1665555.768
10 0 59718  22062.000000  0   -6385752.426    504427.059   2526188.603
10 0 59718  22182.000000  0   -5983175.383    652645.148   3342329.689
10 0 59718  22302.000000  0   -5473560.001    781470.013   4099613.416
10 0 59718  22422.000000  0   -4866215.610    886860.912   4784723.573
10 0 59718  22542.000000  0   -4172227.706    965367.693   5385628.350
10 0 59718  22662.000000  0   -3404246.146   1014219.548   5891789.197
10 0 59718  22782.000000  0   -2576246.304   1031397.394   6294342.240
10 0 59718  22902.000000  0   -1703267.640   1015688.574   6586248.870
10 0 59718  23022.000000  0    -801134.720    966723.314   6762412.151
10 0 59718  23142.000000  0     113831.259    884991.381   6819759.069
10 0 59718  23262.000000  0    1025107.015    771839.160   6757290.250
10 0 59718  23382.000000  0    1916264.180    629447.619   6576096.268
10 0 59718  23502.000000  0    2771264.209    460791.138   6279340.109
10 0 59718  23622.000000  0    3574747.536    269577.670   5872206.453
10 0 59718  23742.000000  0    4312312.248     60170.968   5361816.247
10 0 59718  23862.000000  0    4970776.606   -162503.687   4757108.131
10 0 59718  23982.000000  0    5538421.411   -393068.634   4068687.648
10 0 59718  24102.000000  0    6005207.973   -625815.538   3308645.905
10 0 59718  24222.000000  0    6362966.621   -854837.196   2490348.744
10 0 59718  24342.000000  0    6605549.340  -1074166.303   1628199.167
10 0 59718  24462.000000  0    6728942.206  -1277917.972    737379.744
10 0 59718  24582.000000  0    6731338.258  -1460433.165   -166420.749
10 0 59718  24702.000000  0    6613164.883  -1616418.807  -1067293.643
10 0 59718  24822.000000  0    6377064.814  -1741079.968  -1949399.023
10 0 59718  24942.000000  0    6027833.195  -1830241.910  -2797252.479
10 0 59718  25062.000000  0    5572311.472  -1880458.420  -3596001.992
10 0 59718  25182.000000  0    5019242.916  -1889103.905  -4331689.658
10 0 59718  25302.000000  0    4379094.127  -1854447.141  -4991494.015
10 0 59718  25422.000000  0    3663846.083  -1775706.008  -5563948.714
10 0 59718  25542.000000  0    2886760.339  -1653081.742  -6039132.778
10 0 59718  25662.000000  0    2062128.190  -1487771.875  -6408831.312
10 0 59718  25782.000000  0    1205006.090  -1281962.169  -6666667.594
10 0 59718  25902.000000  0     330941.333  -1038798.582  -6808202.113
10 0 59718  26022.000000  0    -544305.677   -762339.681  -6831000.625
10 0 59718  26142.000000  0   -1405039.078   -457489.990  -6734671.154
10 0 59718  26262.000000  0   -2235902.879   -129914.861  -6520870.113
10 0 59718  26382.000000  0   -3022148.623    214061.810  -6193275.764
10 0 59718  26502.000000  0   -3749891.657    567575.289  -5757532.142
10 0 59718  26622.000000  0   -4406355.700    923352.267  -5221162.404
10 0 59718  26742.000000  0   -4980099.539   1273854.883  -4593450.351
10 0 59718  26862.000000  0   -5461223.753   1611436.180  -3885292.009
10 0 59718  26982.000000  0   -5841550.664   1928502.787  -3109015.318
10 0 59718  27102.000000  0   -6114774.503   2217680.453  -2278172.540
10 0 59718  27222.000000  0   -6276578.030   2471979.968  -1407307.093
10 0 59718  27342.000000  0   -6324711.714   2684959.487   -511698.253
10 0 59718  27462.000000  0   -6259032.719   2850878.357    392911.825
10 0 59718  27582.000000  0   -6081500.583   2964838.442   1290602.764
10 0 59718  27702.000000  0   -5796130.034   3022909.739   2165564.951
10 0 59718  27822.000000  0   -5408902.007   3022235.940   3002386.885
10 0 59718  27942.000000  0   -4927636.370   2961117.985   3786334.401
10 0 59718  28062.000000  0   -4361827.799   2839072.400   4503616.208
10 0 59718  28182.000000  0   -3722450.752   2656864.138   5141628.244
10 0 59718  28302.000000  0   -3021739.549   2416513.919   5689174.486
10 0 59718  28422.000000  0   -2272946.837   2121279.733   6136661.276
10 0 59718  28542.000000  0   -1490086.280   1775612.309   6476260.359
10 0 59718  28662.000000  0    -687665.535   1385086.318   6702038.916
10 0 59718  28782.000000  0     119583.434    956308.601   6810056.067
10 0 59718  28902.000000  0     916974.135    496805.505   6798427.276
10 0 59718  29022.000000  0    1690131.599     14891.065   6667354.868
10 0 59718  29142.000000  0    2425250.245   -480482.549   6419125.268
10 0 59718  29262.000000  0    3109340.211   -979890.699   6058072.617
10 0 59718  29382.000000  0    3730459.183  -1473614.272   5590508.320
10 0 59718  29502.000000  0    4277924.887  -1951828.559   5024616.079
10 0 59718  29622.000000  0    4742503.450  -2404798.471   4370314.476
10 0 59718  29742.000000  0    5116572.724  -2823077.446   3639089.220
10 0 59718  29862.000000  0    5394256.038  -3197705.856   2843793.737
10 0 59718  29982.000000  0    5571520.762  -3520403.021   1998421.787
10 0 59718  30102.000000  0    5646240.304  -3783749.539   1117858.683
10 0 59718  30222.000000  0    5618218.728  -3981355.209    217613.048
10 0 59718  30342.000000  0    5489176.038  -4108006.881   -686463.820
10 0 59718  30462.000000  0    5262694.786  -4159793.864  -1578466.536
10 0 59718  30582.000000  0    4944128.776  -4134205.822  -2442724.106
10 0 59718  30702.000000  0    4540476.494  -4030202.197  -3264081.755
10 0 59718  30822.000000  0    4060223.680  -3848251.547  -4028170.524
10 0 59718  30942.000000  0    3513158.742  -3590339.894  -4721658.533
10 0 59718  31062.000000  0    2910166.987  -3259948.796  -5332479.885
10 0 59718  31182.000000  0    2263008.585  -2862004.164  -5850036.494
10 0 59718  31302.000000  0    1584086.894  -2402799.167  -6265371.221
10 0 59718  31422.000000  0     886210.343  -1889891.583  -6571313.719
10 0 59718  31542.000000  0     182351.455  -1331975.941  -6762593.834
10 0 59718  31662.000000  0    -514590.758   -738735.760  -6835922.008
10 0 59718  31782.000000  0   -1192021.400   -120677.914  -6790038.826
10 0 59718  31902.000000  0   -1837872.093    511049.153  -6625734.012
10 0 59718  32022.000000  0   -2440810.987   1144851.303  -6345833.748
10 0 59718  32142.000000  0   -2990437.270   1768896.095  -5955157.439
10 0 59718  32262.000000  0   -3477458.954   2371328.712  -5460444.246
99
